ONEWEB-0309             
1 49095U 21075W   26183.50407344  .00000040  00000+0  70261-4 0  9992
2 49095  87.9136   2.8153 0002261  98.5811 261.5577 13.17649645235598
ONEWEB-0310             
1 49096U 21075X   26183.40680466 -.00000371  00000+0 -10656-2 0  9999
2 49096  87.8950 347.6526 0001827  94.6567 265.4771 13.12442367237181
ONEWEB-0311             
1 49097U 21075Y   26183.43487411 -.00000125  00000+0 -35406-3 0  9996
2 49097  87.9135   2.8291 0002028  77.7649 282.3710 13.17650034235630
ONEWEB-0312             
1 49098U 21075Z   26183.45006789  .00000013  00000+0 -95829-6 0  9997
2 49098  87.9133   2.8363 0002185  87.4828 272.6553 13.17648581235619
ONEWEB-0313             
1 49099U 21075AA  26183.45499837  .00000023  00000+0  25332-4 0  9998
2 49099  87.9130   2.8409 0001928  86.6762 273.4590 13.17649384235601
ONEWEB-0314             
1 49100U 21075AB  26183.49732744  .00000014  00000+0  27250-5 0  9994
2 49100  87.9144   2.8067 0002211  85.9605 274.1780 13.17650115235583
ONEWEB-0315             
1 49101U 21075AC  26183.45593982  .00000313  00000+0  83583-3 0  9991
2 49101  87.8956 347.6081 0001821  81.7143 278.4193 13.12441281237176
ONEWEB-0316             
1 49102U 21075AD  26183.33411335  .00000673  00000+0  16733-2 0  9991
2 49102  87.9181 332.4423 0001897  94.4145 265.7204 13.18683430239204
ONEWEB-0317             
1 49103U 21075AE  26183.45932756  .00000210  00000+0  54802-3 0  9997
2 49103  87.8957 347.6314 0002118 113.7658 246.3693 13.12441218237196
ONEWEB-0318             
1 49104U 21075AF  26183.40661904  .00000027  00000+0  36114-4 0  9990
2 49104  87.9181 332.4303 0001886  90.0602 270.0747 13.18686301239178
ONEWEB-0319             
1 49105U 21075AG  26183.51250423  .00000038  00000+0  65630-4 0  9990
2 49105  87.9135   2.8185 0001817  73.6502 286.4829 13.17650404235626
ONEWEB-0323             
1 49106U 21075AH  26183.44069612  .00000459  00000+0  12397-2 0  9998
2 49106  87.8958 347.6162 0001988  77.4563 282.6788 13.12442885236554
ONEWEB-0329             
1 49107U 21075AJ  26183.44500949  .00000021  00000+0  22061-4 0  9998
2 49107  87.9137   2.8326 0001974  87.9987 272.1371 13.17649771235591
ONEWEB-0330             
1 49108U 21075AK  26183.45334173  .00000081  00000+0  17239-3 0  9990
2 49108  87.9135   2.8447 0002130  91.3196 268.8180 13.19184013235630
ONEWEB-0292             
1 49186U 21083A   26183.62960157 -.00000315  00000+0 -89884-3 0  9998
2 49186  87.8968 317.1634 0001863  94.5244 265.6098 13.13469273232953
ONEWEB-0303             
1 49187U 21083B   26183.40323700  .00000044  00000+0  78415-4 0  9998
2 49187  87.9181 332.4293 0001837  90.5169 269.6174 13.18687647231989
ONEWEB-0306             
1 49188U 21083C   26183.46898836  .00000051  00000+0  95901-4 0  9999
2 49188  87.9186 332.4048 0001933 102.2250 257.9099 13.18688413232037
ONEWEB-0307             
1 49189U 21083D   26183.62367693 -.00000255  00000+0 -73416-3 0  9994
2 49189  87.8971 317.1625 0001901  95.0336 265.1011 13.13470807232956
ONEWEB-0320             
1 49190U 21083E   26183.41335674  .00000080  00000+0  17063-3 0  9997
2 49190  87.9175 332.4320 0001849  95.8583 264.2760 13.18687040231987
ONEWEB-0321             
1 49191U 21083F   26183.50390673  .00000151  00000+0  33879-3 0  9990
2 49191  87.9195 271.3829 0002116 107.3919 252.7446 13.20773228238858
ONEWEB-0322             
1 49192U 21083G   26183.61945393 -.00000179  00000+0 -52437-3 0  9991
2 49192  87.8969 317.1632 0001707 112.6864 247.4446 13.13469502232945
ONEWEB-0324             
1 49193U 21083H   26183.46226516  .00000008  00000+0 -13024-4 0  9994
2 49193  87.9188 332.4117 0002042  96.8341 263.3024 13.18685880232015
ONEWEB-0325             
1 49194U 21083J   26183.46563391  .00000007  00000+0 -15090-4 0  9994
2 49194  87.9180 332.4179 0001769  95.2795 264.8540 13.18686726232027
ONEWEB-0326             
1 49195U 21083K   26183.40508077  .00000053  00000+0  10074-3 0  9995
2 49195  87.9186 332.4287 0001779  85.7171 274.4165 13.18686096232005
ONEWEB-0327             
1 49196U 21083L   26183.48067705 -.00000015  00000+0 -69919-4 0  9995
2 49196  87.9177 332.4167 0001620  83.0796 277.0520 13.18685854232030
ONEWEB-0328             
1 49197U 21083M   26183.60929346  .00000060  00000+0  12986-3 0  9997
2 49197  87.8978 317.1396 0002023  98.5834 261.5525 13.13469320232929
ONEWEB-0331             
1 49198U 21083N   26183.39817075  .00000086  00000+0  18648-3 0  9998
2 49198  87.9184 332.4241 0001881  85.6267 274.5080 13.18687852232014
ONEWEB-0333             
1 49199U 21083P   26183.60421551  .00000243  00000+0  63181-3 0  9990
2 49199  87.8970 317.1657 0001838  98.7663 261.3674 13.13468945232934
ONEWEB-0334             
1 49200U 21083Q   26183.51820624  .00000142  00000+0  31756-3 0  9998
2 49200  87.9192 271.3901 0001985 122.9800 237.1525 13.20774100238813
ONEWEB-0335             
1 49201U 21083R   26183.59912839  .00000296  00000+0  77650-3 0  9990
2 49201  87.8972 317.1640 0001915  93.7672 266.3676 13.13470783232944
