OBJECT_NAME,OBJECT_ID,EPOCH,MEAN_MOTION,ECCENTRICITY,INCLINATION,RA_OF_ASC_NODE,ARG_OF_PERICENTER,MEAN_ANOMALY,EPHEMERIS_TYPE,CLASSIFICATION_TYPE,NORAD_CAT_ID,ELEMENT_SET_NO,REV_AT_EPOCH,BSTAR,MEAN_MOTION_DOT,MEAN_MOTION_DDOT
ONEWEB-0309,2021-075W,2026-07-02T12:05:51.945216,13.17649645,.00022615,87.9136,2.8153,98.5811,261.5577,0,U,49095,999,23559,.7026093E-4,.4E-6,0
ONEWEB-0310,2021-075X,2026-07-02T09:45:47.922624,13.12442367,.00018275,87.8950,347.6526,94.6567,265.4771,0,U,49096,999,23718,-.10656353E-2,-.371E-5,0
ONEWEB-0311,2021-075Y,2026-07-02T10:26:13.123104,13.17650034,.00020289,87.9135,2.8291,77.7649,282.3710,0,U,49097,999,23563,-.3540565E-3,-.125E-5,0
ONEWEB-0312,2021-075Z,2026-07-02T10:48:05.865696,13.17648581,.00021851,87.9133,2.8363,87.4828,272.6553,0,U,49098,999,23561,-.95829E-6,.13E-6,0
ONEWEB-0313,2021-075AA,2026-07-02T10:55:11.859168,13.17649384,.00019284,87.9130,2.8409,86.6762,273.4590,0,U,49099,999,23560,.25331583E-4,.23E-6,0
ONEWEB-0314,2021-075AB,2026-07-02T11:56:09.090816,13.17650115,.00022114,87.9144,2.8067,85.9605,274.1780,0,U,49100,999,23558,.2724996E-5,.14E-6,0
ONEWEB-0315,2021-075AC,2026-07-02T10:56:33.200448,13.12441281,.00018219,87.8956,347.6081,81.7143,278.4193,0,U,49101,999,23717,.83582571E-3,.313E-5,0
ONEWEB-0316,2021-075AD,2026-07-02T08:01:07.393440,13.18683430,.00018975,87.9181,332.4423,94.4145,265.7204,0,U,49102,999,23920,.16732539E-2,.673E-5,0
ONEWEB-0317,2021-075AE,2026-07-02T11:01:25.901184,13.12441218,.00021183,87.8957,347.6314,113.7658,246.3693,0,U,49103,999,23719,.54802444E-3,.21E-5,0
ONEWEB-0318,2021-075AF,2026-07-02T09:45:31.885056,13.18686301,.00018862,87.9181,332.4303,90.0602,270.0747,0,U,49104,999,23917,.36113894E-4,.27E-6,0
ONEWEB-0319,2021-075AG,2026-07-02T12:18:00.365472,13.17650404,.00018177,87.9135,2.8185,73.6502,286.4829,0,U,49105,999,23562,.65629673E-4,.38E-6,0
ONEWEB-0323,2021-075AH,2026-07-02T10:34:36.144768,13.12442885,.00019886,87.8958,347.6162,77.4563,282.6788,0,U,49106,999,23655,.12397283E-2,.459E-5,0
ONEWEB-0329,2021-075AJ,2026-07-02T10:40:48.819936,13.17649771,.00019749,87.9137,2.8326,87.9987,272.1371,0,U,49107,999,23559,.2206056E-4,.21E-6,0
ONEWEB-0330,2021-075AK,2026-07-02T10:52:48.725472,13.19184013,.00021306,87.9135,2.8447,91.3196,268.8180,0,U,49108,999,23563,.17239199E-3,.81E-6,0
ONEWEB-0292,2021-083A,2026-07-02T15:06:37.575648,13.13469273,.00018634,87.8968,317.1634,94.5244,265.6098,0,U,49186,999,23295,-.89883653E-3,-.315E-5,0
ONEWEB-0303,2021-083B,2026-07-02T09:40:39.676800,13.18687647,.00018378,87.9181,332.4293,90.5169,269.6174,0,U,49187,999,23198,.78414594E-4,.44E-6,0
ONEWEB-0306,2021-083C,2026-07-02T11:15:20.594304,13.18688413,.00019332,87.9186,332.4048,102.2250,257.9099,0,U,49188,999,23203,.95900508E-4,.51E-6,0
ONEWEB-0307,2021-083D,2026-07-02T14:58:05.686752,13.13470807,.00019015,87.8971,317.1625,95.0336,265.1011,0,U,49189,999,23295,-.73415561E-3,-.255E-5,0
ONEWEB-0320,2021-083E,2026-07-02T09:55:14.022336,13.18687040,.00018496,87.9175,332.4320,95.8583,264.2760,0,U,49190,999,23198,.17063376E-3,.8E-6,0
ONEWEB-0321,2021-083F,2026-07-02T12:05:37.541472,13.20773228,.00021161,87.9195,271.3829,107.3919,252.7446,0,U,49191,999,23885,.33879171E-3,.151E-5,0
ONEWEB-0322,2021-083G,2026-07-02T14:52:00.819552,13.13469502,.00017071,87.8969,317.1632,112.6864,247.4446,0,U,49192,999,23294,-.52437462E-3,-.179E-5,0
ONEWEB-0324,2021-083H,2026-07-02T11:05:39.709824,13.18685880,.00020428,87.9188,332.4117,96.8341,263.3024,0,U,49193,999,23201,-.13023591E-4,.8E-7,0
ONEWEB-0325,2021-083J,2026-07-02T11:10:30.769824,13.18686726,.00017696,87.9180,332.4179,95.2795,264.8540,0,U,49194,999,23202,-.15089897E-4,.7E-7,0
ONEWEB-0326,2021-083K,2026-07-02T09:43:18.978528,13.18686096,.0001779,87.9186,332.4287,85.7171,274.4165,0,U,49195,999,23200,.10074265E-3,.53E-6,0
ONEWEB-0327,2021-083L,2026-07-02T11:32:10.497120,13.18685854,.00016202,87.9177,332.4167,83.0796,277.0520,0,U,49196,999,23203,-.69918615E-4,-.15E-6,0
ONEWEB-0328,2021-083M,2026-07-02T14:37:22.954944,13.13469320,.00020232,87.8978,317.1396,98.5834,261.5525,0,U,49197,999,23292,.12986226E-3,.6E-6,0
ONEWEB-0331,2021-083N,2026-07-02T09:33:21.952800,13.18687852,.00018818,87.9184,332.4241,85.6267,274.5080,0,U,49198,999,23201,.18648107E-3,.86E-6,0
ONEWEB-0333,2021-083P,2026-07-02T14:30:04.220064,13.13468945,.00018385,87.8970,317.1657,98.7663,261.3674,0,U,49199,999,23293,.63180988E-3,.243E-5,0
ONEWEB-0334,2021-083Q,2026-07-02T12:26:13.019136,13.20774100,.00019855,87.9192,271.3901,122.9800,237.1525,0,U,49200,999,23881,.31756413E-3,.142E-5,0
ONEWEB-0335,2021-083R,2026-07-02T14:22:44.692896,13.13470783,.00019159,87.8972,317.1640,93.7672,266.3676,0,U,49201,999,23294,.77649744E-3,.296E-5,0
